#Pass ID: 20250116_071056_METOP-C
#Satellite: METOP-C
#Configuration: METOP-C
#Start time: 2025-01-16 07:11:01.162376

#LorettStation: 1.0.0 05.05.2024
#Station: Regia
#Location: 37.494653 lon 55.929028 lat
#TLE: 1 43689U 18087A   25015.08140397  .00000206  00000+0  11426-3 0  9993
#TLE: 2 43689  98.6965  77.5724 0001426 164.6010 195.5211 14.21480919321221

#Time	Az	El	Level	SNR
#Closed at: 2025-01-16 07:10:56.163993